GLOBALSTAR M057         
1 25943U 99058A   25292.56340107 -.00000075  00000+0  16548-3 0  9999
2 25943  52.0011 355.2236 0002181 263.0826  96.9775 12.24827568182176
GLOBALSTAR M059         
1 25944U 99058B   25292.86313903 -.00000139  00000+0 -65031-3 0  9990
2 25944  52.0005 229.8819 0000489  68.7225 325.0198 11.99986911589013
GLOBALSTAR M056         
1 25945U 99058C   25292.13276512 -.00000107  00000+0 -22796-3 0  9991
2 25945  51.9953 230.6397 0001489  59.7609  41.8858 12.04779203177562
GLOBALSTAR M031         
1 25946U 99058D   25292.94529245 -.00000128  00000+0 -38201-3 0  9996
2 25946  51.9938 113.2764 0002345  82.4074   9.4993 12.16041711179720
GLOBALSTAR M039         
1 25961U 99062A   25292.55668171 -.00000090  00000+0  75377-4 0  9990
2 25961  51.9831 249.9077 0002155 270.4208  89.6412 12.62333784195921
GLOBALSTAR M034         
1 25962U 99062B   25292.80773875 -.00000057  00000+0  38078-3 0  9996
2 25962  51.9893  47.4414 0013427 275.9654 253.5762 11.79449677153093
GLOBALSTAR M029         
1 25963U 99062C   25292.90609111 -.00000031  00000+0  68466-3 0  9995
2 25963  51.9778 117.6936 0002771  26.5174 116.1877 11.99902661184096
GLOBALSTAR M061         
1 25964U 99062D   25292.98842970 -.00000104  00000+0 -39073-3 0  9990
2 25964  51.9786 232.6664 0005366 196.6157 239.9571 11.76777278135871
